CCSDS_OMM_VERS = 2.0
CREATION_DATE  = 
ORIGINATOR     = 

OBJECT_NAME    = STARLINK-36930
OBJECT_ID      = 2026-040D
CENTER_NAME    = EARTH
REF_FRAME      = TEME
TIME_SYSTEM    = UTC
MEAN_ELEMENT_THEORY = SGP/SGP4

EPOCH          = 2026-03-20T12:00:00.999648
MEAN_MOTION    = 15.76307287
ECCENTRICITY   = .00015913
INCLINATION    = 97.2818
RA_OF_ASC_NODE = 28.4747
ARG_OF_PERICENTER = 90.9526
MEAN_ANOMALY   = 23.1822

EPHEMERIS_TYPE = 0
CLASSIFICATION_TYPE = U
NORAD_CAT_ID   = 68018
ELEMENT_SET_NO = 999
REV_AT_EPOCH   = 416
BSTAR          = -.10480259E-1
MEAN_MOTION_DOT = -.1452255E-1
MEAN_MOTION_DDOT = 0

CCSDS_OMM_VERS = 2.0
CREATION_DATE  = 
ORIGINATOR     = 

OBJECT_NAME    = STARLINK-36921
OBJECT_ID      = 2026-040E
CENTER_NAME    = EARTH
REF_FRAME      = TEME
TIME_SYSTEM    = UTC
MEAN_ELEMENT_THEORY = SGP/SGP4

EPOCH          = 2026-03-20T12:00:00.999648
MEAN_MOTION    = 15.77508150
ECCENTRICITY   = .0001719
INCLINATION    = 97.2844
RA_OF_ASC_NODE = 28.4861
ARG_OF_PERICENTER = 89.5926
MEAN_ANOMALY   = 44.9510

EPHEMERIS_TYPE = 0
CLASSIFICATION_TYPE = U
NORAD_CAT_ID   = 68019
ELEMENT_SET_NO = 999
REV_AT_EPOCH   = 416
BSTAR          = -.1348139E-1
MEAN_MOTION_DOT = -.1936209E-1
MEAN_MOTION_DDOT = 0

CCSDS_OMM_VERS = 2.0
CREATION_DATE  = 
ORIGINATOR     = 

OBJECT_NAME    = STARLINK-36928
OBJECT_ID      = 2026-040F
CENTER_NAME    = EARTH
REF_FRAME      = TEME
TIME_SYSTEM    = UTC
MEAN_ELEMENT_THEORY = SGP/SGP4

EPOCH          = 2026-03-20T12:00:00.999648
MEAN_MOTION    = 15.77162989
ECCENTRICITY   = .00015936
INCLINATION    = 97.2844
RA_OF_ASC_NODE = 28.4822
ARG_OF_PERICENTER = 86.8708
MEAN_ANOMALY   = 42.3170

EPHEMERIS_TYPE = 0
CLASSIFICATION_TYPE = U
NORAD_CAT_ID   = 68020
ELEMENT_SET_NO = 999
REV_AT_EPOCH   = 416
BSTAR          = -.13779792E-1
MEAN_MOTION_DOT = -.1946909E-1
MEAN_MOTION_DDOT = 0

CCSDS_OMM_VERS = 2.0
CREATION_DATE  = 
ORIGINATOR     = 

OBJECT_NAME    = STARLINK-36858
OBJECT_ID      = 2026-040G
CENTER_NAME    = EARTH
REF_FRAME      = TEME
TIME_SYSTEM    = UTC
MEAN_ELEMENT_THEORY = SGP/SGP4

EPOCH          = 2026-03-20T13:00:27.728640
MEAN_MOTION    = 15.82837172
ECCENTRICITY   = .00016605
INCLINATION    = 97.2785
RA_OF_ASC_NODE = 28.6779
ARG_OF_PERICENTER = 130.8864
MEAN_ANOMALY   = 229.2549

EPHEMERIS_TYPE = 0
CLASSIFICATION_TYPE = U
NORAD_CAT_ID   = 68021
ELEMENT_SET_NO = 999
REV_AT_EPOCH   = 307
BSTAR          = -.4330776E-2
MEAN_MOTION_DOT = -.829657E-2
MEAN_MOTION_DDOT = 0

CCSDS_OMM_VERS = 2.0
CREATION_DATE  = 
ORIGINATOR     = 

OBJECT_NAME    = STARLINK-36916
OBJECT_ID      = 2026-040H
CENTER_NAME    = EARTH
REF_FRAME      = TEME
TIME_SYSTEM    = UTC
MEAN_ELEMENT_THEORY = SGP/SGP4

EPOCH          = 2026-03-20T12:00:00.999648
MEAN_MOTION    = 15.76956411
ECCENTRICITY   = .00016138
INCLINATION    = 97.2822
RA_OF_ASC_NODE = 28.4867
ARG_OF_PERICENTER = 91.9680
MEAN_ANOMALY   = 49.4973

EPHEMERIS_TYPE = 0
CLASSIFICATION_TYPE = U
NORAD_CAT_ID   = 68022
ELEMENT_SET_NO = 999
REV_AT_EPOCH   = 416
BSTAR          = -.13305543E-1
MEAN_MOTION_DOT = -.1873572E-1
MEAN_MOTION_DDOT = 0

CCSDS_OMM_VERS = 2.0
CREATION_DATE  = 
ORIGINATOR     = 

OBJECT_NAME    = STARLINK-36871
OBJECT_ID      = 2026-040J
CENTER_NAME    = EARTH
REF_FRAME      = TEME
TIME_SYSTEM    = UTC
MEAN_ELEMENT_THEORY = SGP/SGP4

EPOCH          = 2026-03-20T12:00:00.999648
MEAN_MOTION    = 15.76335232
ECCENTRICITY   = .00017719
INCLINATION    = 97.2820
RA_OF_ASC_NODE = 28.4870
ARG_OF_PERICENTER = 88.5006
MEAN_ANOMALY   = 55.6116

EPHEMERIS_TYPE = 0
CLASSIFICATION_TYPE = U
NORAD_CAT_ID   = 68023
ELEMENT_SET_NO = 999
REV_AT_EPOCH   = 416
BSTAR          = -.10772404E-1
MEAN_MOTION_DOT = -.1489692E-1
MEAN_MOTION_DDOT = 0

CCSDS_OMM_VERS = 2.0
CREATION_DATE  = 
ORIGINATOR     = 

OBJECT_NAME    = STARLINK-36891
OBJECT_ID      = 2026-040K
CENTER_NAME    = EARTH
REF_FRAME      = TEME
TIME_SYSTEM    = UTC
MEAN_ELEMENT_THEORY = SGP/SGP4

EPOCH          = 2026-03-20T12:00:00.999648
MEAN_MOTION    = 15.76234509
ECCENTRICITY   = .00018144
INCLINATION    = 97.2822
RA_OF_ASC_NODE = 28.4889
ARG_OF_PERICENTER = 84.3466
MEAN_ANOMALY   = 63.8357

EPHEMERIS_TYPE = 0
CLASSIFICATION_TYPE = U
NORAD_CAT_ID   = 68024
ELEMENT_SET_NO = 999
REV_AT_EPOCH   = 416
BSTAR          = -.98373794E-2
MEAN_MOTION_DOT = -.1369039E-1
MEAN_MOTION_DDOT = 0

CCSDS_OMM_VERS = 2.0
CREATION_DATE  = 
ORIGINATOR     = 

OBJECT_NAME    = STARLINK-36378
OBJECT_ID      = 2026-040L
CENTER_NAME    = EARTH
REF_FRAME      = TEME
TIME_SYSTEM    = UTC
MEAN_ELEMENT_THEORY = SGP/SGP4

EPOCH          = 2026-03-20T12:00:00.999648
MEAN_MOTION    = 15.76130589
ECCENTRICITY   = .00014963
INCLINATION    = 97.2834
RA_OF_ASC_NODE = 28.4955
ARG_OF_PERICENTER = 94.4022
MEAN_ANOMALY   = 61.8884

EPHEMERIS_TYPE = 0
CLASSIFICATION_TYPE = U
NORAD_CAT_ID   = 68025
ELEMENT_SET_NO = 999
REV_AT_EPOCH   = 411
BSTAR          = -.97689095E-2
MEAN_MOTION_DOT = -.1354784E-1
MEAN_MOTION_DDOT = 0

CCSDS_OMM_VERS = 2.0
CREATION_DATE  = 
ORIGINATOR     = 

OBJECT_NAME    = STARLINK-36884
OBJECT_ID      = 2026-040M
CENTER_NAME    = EARTH
REF_FRAME      = TEME
TIME_SYSTEM    = UTC
MEAN_ELEMENT_THEORY = SGP/SGP4

EPOCH          = 2026-03-20T12:00:00.999648
MEAN_MOTION    = 15.76745127
ECCENTRICITY   = .00017025
INCLINATION    = 97.2825
RA_OF_ASC_NODE = 28.4924
ARG_OF_PERICENTER = 96.3732
MEAN_ANOMALY   = 57.3442

EPHEMERIS_TYPE = 0
CLASSIFICATION_TYPE = U
NORAD_CAT_ID   = 68026
ELEMENT_SET_NO = 999
REV_AT_EPOCH   = 416
BSTAR          = -.12683145E-1
MEAN_MOTION_DOT = -.178199E-1
MEAN_MOTION_DDOT = 0

CCSDS_OMM_VERS = 2.0
CREATION_DATE  = 
ORIGINATOR     = 

OBJECT_NAME    = STARLINK-36940
OBJECT_ID      = 2026-040N
CENTER_NAME    = EARTH
REF_FRAME      = TEME
TIME_SYSTEM    = UTC
MEAN_ELEMENT_THEORY = SGP/SGP4

EPOCH          = 2026-03-20T12:00:00.999648
MEAN_MOTION    = 15.75299648
ECCENTRICITY   = .00012611
INCLINATION    = 97.2861
RA_OF_ASC_NODE = 28.5218
ARG_OF_PERICENTER = 95.7558
MEAN_ANOMALY   = 108.9927

EPHEMERIS_TYPE = 0
CLASSIFICATION_TYPE = U
NORAD_CAT_ID   = 68027
ELEMENT_SET_NO = 999
REV_AT_EPOCH   = 426
BSTAR          = -.1383035E-2
MEAN_MOTION_DOT = -.202567E-2
MEAN_MOTION_DDOT = 0

CCSDS_OMM_VERS = 2.0
CREATION_DATE  = 
ORIGINATOR     = 

OBJECT_NAME    = STARLINK-36253
OBJECT_ID      = 2026-040P
CENTER_NAME    = EARTH
REF_FRAME      = TEME
TIME_SYSTEM    = UTC
MEAN_ELEMENT_THEORY = SGP/SGP4

EPOCH          = 2026-03-20T12:00:00.999648
MEAN_MOTION    = 15.67076852
ECCENTRICITY   = .00018314
INCLINATION    = 97.2852
RA_OF_ASC_NODE = 28.2491
ARG_OF_PERICENTER = 108.1296
MEAN_ANOMALY   = 190.6249

EPHEMERIS_TYPE = 0
CLASSIFICATION_TYPE = U
NORAD_CAT_ID   = 68028
ELEMENT_SET_NO = 999
REV_AT_EPOCH   = 426
BSTAR          = -.21259617E-1
MEAN_MOTION_DOT = -.1993983E-1
MEAN_MOTION_DDOT = 0

CCSDS_OMM_VERS = 2.0
CREATION_DATE  = 
ORIGINATOR     = 

OBJECT_NAME    = STARLINK-36944
OBJECT_ID      = 2026-040Q
CENTER_NAME    = EARTH
REF_FRAME      = TEME
TIME_SYSTEM    = UTC
MEAN_ELEMENT_THEORY = SGP/SGP4

EPOCH          = 2026-03-20T12:00:00.999648
MEAN_MOTION    = 15.75982131
ECCENTRICITY   = .00012421
INCLINATION    = 97.2828
RA_OF_ASC_NODE = 28.4938
ARG_OF_PERICENTER = 101.1755
MEAN_ANOMALY   = 59.1850

EPHEMERIS_TYPE = 0
CLASSIFICATION_TYPE = U
NORAD_CAT_ID   = 68029
ELEMENT_SET_NO = 999
REV_AT_EPOCH   = 416
BSTAR          = -.79923162E-2
MEAN_MOTION_DOT = -.1106212E-1
MEAN_MOTION_DDOT = 0

