STARLINK-36930          
1 68018U 26040D   26079.50001157 -.01452255  00000+0 -10480-1 0  9997
2 68018  97.2818  28.4747 0001591  90.9526  23.1822 15.76307287  4164
STARLINK-36921          
1 68019U 26040E   26079.50001157 -.01936209  00000+0 -13481-1 0  9998
2 68019  97.2844  28.4861 0001719  89.5926  44.9510 15.77508150  4169
STARLINK-36928          
1 68020U 26040F   26079.50001157 -.01946909  00000+0 -13780-1 0  9990
2 68020  97.2844  28.4822 0001593  86.8708  42.3170 15.77162989  4166
STARLINK-36858          
1 68021U 26040G   26079.54198760 -.00829657  00000+0 -43308-2 0  9991
2 68021  97.2785  28.6779 0001660 130.8864 229.2549 15.82837172  3076
STARLINK-36916          
1 68022U 26040H   26079.50001157 -.01873572  00000+0 -13306-1 0  9991
2 68022  97.2822  28.4867 0001613  91.9680  49.4973 15.76956411  4161
STARLINK-36871          
1 68023U 26040J   26079.50001157 -.01489692  00000+0 -10772-1 0  9992
2 68023  97.2820  28.4870 0001771  88.5006  55.6116 15.76335232  4163
STARLINK-36891          
1 68024U 26040K   26079.50001157 -.01369039  00000+0 -98374-2 0  9990
2 68024  97.2822  28.4889 0001814  84.3466  63.8357 15.76234509  4161
STARLINK-36378          
1 68025U 26040L   26079.50001157 -.01354784  00000+0 -97689-2 0  9990
2 68025  97.2834  28.4955 0001496  94.4022  61.8884 15.76130589  4116
STARLINK-36884          
1 68026U 26040M   26079.50001157 -.01781990  00000+0 -12683-1 0  9994
2 68026  97.2825  28.4924 0001702  96.3732  57.3442 15.76745127  4167
STARLINK-36940          
1 68027U 26040N   26079.50001157 -.00202567  00000+0 -13830-2 0  9998
2 68027  97.2861  28.5218 0001261  95.7558 108.9927 15.75299648  4267
STARLINK-36253          
1 68028U 26040P   26079.50001157 -.01993983  00000+0 -21260-1 0  9994
2 68028  97.2852  28.2491 0001831 108.1296 190.6249 15.67076852  4265
STARLINK-36944          
1 68029U 26040Q   26079.50001157 -.01106212  00000+0 -79923-2 0  9996
2 68029  97.2828  28.4938 0001242 101.1755  59.1850 15.75982131  4167
